{
    "links": {
        "self": "http://www.neowsapp.com/rest/v1/neo/3824081?api_key=iIulBulltgU6a56xZRHN4H3l9WmuAYTsLGpBGhQ2"
    },
    "id": "3824081",
    "neo_reference_id": "3824081",
    "name": "(2018 JA2)",
    "designation": "2018 JA2",
    "nasa_jpl_url": "http://ssd.jpl.nasa.gov/sbdb.cgi?sstr=3824081",
    "absolute_magnitude_h": 23.9,
    "estimated_diameter": {
        "kilometers": {
            "estimated_diameter_min": 0.04411182,
            "estimated_diameter_max": 0.0986370281
        },
        "meters": {
            "estimated_diameter_min": 44.1118199997,
            "estimated_diameter_max": 98.6370281305
        },
        "miles": {
            "estimated_diameter_min": 0.0274098057,
            "estimated_diameter_max": 0.0612901888
        },
        "feet": {
            "estimated_diameter_min": 144.7238235278,
            "estimated_diameter_max": 323.6123073718
        }
    },
    "is_potentially_hazardous_asteroid": false,
    "close_approach_data": [
        {
            "close_approach_date": "1954-10-30",
            "close_approach_date_full": "1954-Oct-30 03:28",
            "epoch_date_close_approach": -478816320000,
            "relative_velocity": {
                "kilometers_per_second": "13.6151285056",
                "kilometers_per_hour": "49014.4626203321",
                "miles_per_hour": "30455.6809542836"
            },
            "miss_distance": {
                "astronomical": "0.0517095174",
                "lunar": "20.1150022686",
                "kilometers": "7735633.661767938",
                "miles": "4806699.8677880244"
            },
            "orbiting_body": "Earth"
        },
        {
            "close_approach_date": "2018-05-11",
            "close_approach_date_full": "2018-May-11 17:22",
            "epoch_date_close_approach": 1526059320000,
            "relative_velocity": {
                "kilometers_per_second": "13.6558351589",
                "kilometers_per_hour": "49161.0065719871",
                "miles_per_hour": "30546.7376669105"
            },
            "miss_distance": {
                "astronomical": "0.0559783214",
                "lunar": "21.7755670246",
                "kilometers": "8374237.647615418",
                "miles": "5203509.9842640484"
            },
            "orbiting_body": "Earth"
        },
        {
            "close_approach_date": "2059-11-06",
            "close_approach_date_full": "2059-Nov-06 15:21",
            "epoch_date_close_approach": 2835357660000,
            "relative_velocity": {
                "kilometers_per_second": "17.2264741968",
                "kilometers_per_hour": "62015.3071084955",
                "miles_per_hour": "38533.9001308315"
            },
            "miss_distance": {
                "astronomical": "0.0991667076",
                "lunar": "38.5758492564",
                "kilometers": "14835128.231872812",
                "miles": "9218121.2333243256"
            },
            "orbiting_body": "Earth"
        },
        {
            "close_approach_date": "2113-09-20",
            "close_approach_date_full": "2113-Sep-20 17:10",
            "epoch_date_close_approach": 4535370600000,
            "relative_velocity": {
                "kilometers_per_second": "10.143385827",
                "kilometers_per_hour": "36516.1889773699",
                "miles_per_hour": "22689.7397565219"
            },
            "miss_distance": {
                "astronomical": "0.300160248",
                "lunar": "116.762336472",
                "kilometers": "44903333.75947176",
                "miles": "27901637.781999888"
            },
            "orbiting_body": "Earth"
        }
    ],
    "orbital_data": {
        "orbit_id": "1",
        "orbit_determination_date": "2018-05-12 08:44:36",
        "first_observation_date": "2018-05-09",
        "last_observation_date": "2018-05-12",
        "data_arc_in_days": 3,
        "observations_used": 36,
        "orbit_uncertainty": "9",
        "minimum_orbit_intersection": ".0207864",
        "jupiter_tisserand_invariant": "4.984",
        "epoch_osculation": "2458249.5",
        "eccentricity": ".4063616497516785",
        "semi_major_axis": "1.263511763164443",
        "inclination": "15.87664197988012",
        "ascending_node_longitude": "222.486964316235",
        "orbital_period": "518.7610506212285",
        "perihelion_distance": ".750069038604288",
        "perihelion_argument": "93.3795354612748",
        "aphelion_distance": "1.776954487724598",
        "perihelion_time": "2458311.677029431164",
        "mean_anomaly": "316.8515589818974",
        "mean_motion": ".6939611205754395",
        "equinox": "J2000",
        "orbit_class": {
            "orbit_class_type": "APO",
            "orbit_class_description": "Near-Earth asteroid orbits which cross the Earth’s orbit similar to that of 1862 Apollo",
            "orbit_class_range": "a (semi-major axis) > 1.0 AU; q (perihelion) < 1.017 AU"
        }
    },
    "is_sentry_object": false
}